STARLINK-36865
1 67930U 26036AC  26092.73991960 -.00212150  00000+0 -78345-2 0  9996
2 67930  42.9962 109.1315 0004684  64.5077 295.6259 15.27929796  7406
